STARLINK-6066           
1 56105U 23046N   24130.52406477  .00003845  00000+0  29951-3 0  9995
2 56105  43.0017 194.8805 0001249 259.4447 100.6254 15.02542415 61947
STARLINK-6078           
1 56106U 23046P   24129.60003442  .00000262  00000+0  34433-4 0  9990
2 56106  43.0032 199.9841 0001257 261.9493  98.1207 15.02536708 61801
STARLINK-6030           
1 56107U 23046Q   24130.18612373  .00002870  00000+0  22745-3 0  9994
2 56107  43.0024 196.6432 0001480 268.0340  92.0333 15.02540847 61891
STARLINK-6081           
1 56108U 23046R   24130.20055001  .00001672  00000+0  13878-3 0  9993
2 56108  43.0032 196.7532 0001249 273.0181  87.0519 15.02539013 61898
STARLINK-6083           
1 56109U 23046S   24130.45537588  .00006288  00000+0  48002-3 0  9991
2 56109  43.0026 195.2217 0001474 263.3222  96.7453 15.02542770 61937
STARLINK-6082           
1 56110U 23046T   24129.59670121 -.00000745  00000+0 -40112-4 0  9996
2 56110  43.0014 199.9637 0001058 278.4602  81.6120 15.02535545 61262
STARLINK-6084           
1 56111U 23046U   24130.44093991  .00006312  00000+0  48178-3 0  9990
2 56111  43.0014 195.1127 0001349 277.7723  82.2966 15.02546894 61932
STARLINK-6080           
1 56112U 23046V   24129.91465482 -.00003367  00000+0 -23432-3 0  9994
2 56112  43.0036 198.0441 0001378 261.2392  98.8295 15.02528534 61311
STARLINK-6113           
1 56113U 23046W   24130.37001955  .00002295  00000+0  18494-3 0  9997
2 56113  43.0035 195.4412 0001543 264.5609  95.5058 15.02533790 61929
STARLINK-6103           
1 56114U 23046X   24130.44982008  .00001423  00000+0  12043-3 0  9999
2 56114  43.0031 195.1813 0001172 270.4873  89.5835 15.02533116 61934
STARLINK-6101           
1 56115U 23046Y   24129.90023834  .00015186  00000+0  11363-2 0  9996
2 56115  43.0021 197.9360 0001226 266.3451  93.7251 15.02552680 61315
STARLINK-6114           
1 56116U 23046Z   24130.44316032  .00002165  00000+0  17530-3 0  9999
2 56116  43.0020 195.1320 0001279 263.9677  96.1020 15.02541121 61939
STARLINK-6107           
1 56117U 23046AA  24130.48670681  .00004343  00000+0  33631-3 0  9997
2 56117  43.0016 182.4857 0001331 265.3191  94.7499 15.02542593 62080
STARLINK-6105           
1 56118U 23046AB  24130.50186905  .00003131  00000+0  24672-3 0  9991
2 56118  43.0018 194.7103 0001285 265.5683  94.5013 15.02535704 61949
STARLINK-6091           
1 56119U 23046AC  24130.49669511  .00006381  00000+0  48687-3 0  9991
2 56119  43.0015 182.5513 0001478 264.8917  95.1757 15.02546339 62087
STARLINK-6079           
1 56120U 23046AD  24130.43797749  .00001701  00000+0  14090-3 0  9994
2 56120  43.0031 182.9740 0001087 271.9841  88.0877 15.02547754 62079
STARLINK-6092           
1 56121U 23046AE  24130.50002384  .00005332  00000+0  40939-3 0  9992
2 56121  43.0024 182.5771 0001604 262.1723  97.8938 15.02546468 62086
STARLINK-6094           
1 56122U 23046AF  24130.23817215  .00005202  00000+0  39973-3 0  9992
2 56122  43.0017 196.1687 0001288 264.8640  95.2056 15.02546082 61906
STARLINK-6115           
1 56123U 23046AH  24130.48781498  .00005281  00000+0  40564-3 0  9998
2 56123  43.0016 182.4848 0001488 253.8174 106.2504 15.02543308 62084
STARLINK-6126           
1 56124U 23046AJ  24130.43465540  .00002755  00000+0  21884-3 0  9998
2 56124  43.0026 182.9476 0001434 258.5364 101.5318 15.02547737 62072
STARLINK-6119           
1 56125U 23046AK  24130.49114430  .00005633  00000+0  43172-3 0  9996
2 56125  43.0010 182.5104 0001259 261.7797  98.2902 15.02538748 62085
STARLINK-6124           
1 56126U 23046AL  24129.88618835  .00007892  00000+0  59846-3 0  9990
2 56126  43.0018 185.7096 0001429 281.8335  78.2347 15.02546213 61456
STARLINK-6104           
1 56127U 23046AM  24129.87841781  .00008751  00000+0  66185-3 0  9997
2 56127  43.0016 185.6547 0001401 279.9974  80.0710 15.02546692 61458
STARLINK-6122           
1 56128U 23046AN  24130.49335898  .00002786  00000+0  22118-3 0  9995
2 56128  43.0009 182.5271 0001207 276.0290  84.0415 15.02545381 62084
STARLINK-6121           
1 56129U 23046AP  24129.41745027 -.00000201  00000+0  19479-6 0  9995
2 56129  43.0024 136.3187 0001027 280.4842  79.5885 15.02539793 61985
STARLINK-6117           
1 56130U 23046AQ  24130.48115004  .00006643  00000+0  50614-3 0  9990
2 56130  43.0011 182.4351 0001476 279.8554  80.2122 15.02552906 62084
STARLINK-6120           
1 56131U 23046AR  24130.20081394  .00007357  00000+0  55892-3 0  9991
2 56131  43.0019 183.7722 0001319 280.6367  79.4326 15.02549526 62043
STARLINK-6071           
1 56132U 23046AS  24129.87952659  .00009416  00000+0  71096-3 0  9996
2 56132  43.0015 185.6606 0001254 260.8318  99.2383 15.02545440 61454
STARLINK-5566           
1 56133U 23046AT  24130.46784096  .00003922  00000+0  30524-3 0  9999
2 56133  43.0011 182.3338 0001144 263.3538  96.7174 15.02537124 62087
STARLINK-5564           
1 56134U 23046AU  24130.40801403  .00005949  00000+0  45489-3 0  9993
2 56134  43.0020 182.7468 0001331 274.9722  85.0968 15.02552783 62076
STARLINK-5489           
1 56136U 23046AW  24130.13766153  .00001464  00000+0  12346-3 0  9991
2 56136  43.0019 184.1589 0001252 278.5078  81.5622 15.02535386 62036
STARLINK-5090           
1 56137U 23046AX  24130.44784787  .00002132  00000+0  17283-3 0  9997
2 56137  43.0017 182.1816 0001220 274.5689  85.5014 15.02543734 62085
STARLINK-4774           
1 56138U 23046AY  24130.46340072  .00003351  00000+0  26305-3 0  9994
2 56138  43.0020 182.2997 0001213 265.3788  94.6916 15.02535284 62084
STARLINK-5378           
1 56139U 23046AZ  24130.58335648  .01098895  00000+0  47483-2 0  9998
2 56139  42.9970 153.5934 0001604 277.7215 167.3421 15.81705361 62424
STARLINK-5375           
1 56140U 23046BA  24130.46117661  .00003736  00000+0  29148-3 0  9998
2 56140  43.0014 182.2818 0001524 265.4600  94.6068 15.02541435 62084
STARLINK-5377           
1 56141U 23046BB  24130.44674379  .00006780  00000+0  51633-3 0  9997
2 56141  43.0015 182.1737 0001311 288.0301  72.0398 15.02548147 62081
STARLINK-5376           
1 56142U 23046BC  24130.45784212  .00006297  00000+0  48063-3 0  9993
2 56142  43.0013 182.2586 0001229 278.5823  81.4880 15.02548181 62082
STARLINK-5016           
1 56143U 23046BD  24130.44119988  .00003272  00000+0  25716-3 0  9995
2 56143  43.0012 182.1313 0001318 272.6485  87.4206 15.02538273 62086
STARLINK-5374           
1 56144U 23046BE  24130.45453294  .00021053  00000+0  15679-2 0  9991
2 56144  43.0008 182.2306 0001301 269.3001  90.7692 15.02560351 62082
STARLINK-5111           
1 56146U 23046BG  24130.44342080  .00003958  00000+0  30783-3 0  9990
2 56146  43.0017 182.1464 0001093 263.8602  96.2116 15.02541429 62089
STARLINK-5140           
1 56147U 23046BH  24129.75399003 -.00000069  00000+0  99349-5 0  9996
2 56147  43.0034 147.3596 0001137 270.2392  89.8320 15.02540190 61881
STARLINK-5089           
1 56148U 23046BJ  24129.75731915  .00000528  00000+0  54126-4 0  9991
2 56148  43.0019 147.3878 0001063 282.8948  77.1776 15.02538374 61888
STARLINK-30107          
1 56287U 23056B   24130.33574497  .00002032  00000+0  16551-3 0  9993
2 56287  43.0019 247.5253 0001598 283.5842  76.4823 15.02524689 58735
STARLINK-30106          
1 56288U 23056C   24130.50186637 -.00002580  00000+0 -17597-3 0  9999
2 56288  43.0021 246.2126 0002350 269.4396  90.6177 15.02531042 58762
STARLINK-30095          
1 56289U 23056D   24130.33290014  .00004601  00000+0  35537-3 0  9994
2 56289  43.0012 221.3670 0001695 286.7767  73.2889 15.02546814 59048
STARLINK-30103          
1 56290U 23056E   24130.49854562 -.00000729  00000+0 -38886-4 0  9997
2 56290  43.0034 246.1884 0001353 238.3692 121.7018 15.02524182 58773
STARLINK-30113          
1 56291U 23056F   24130.37224429  .00018196  00000+0  13576-2 0  9990
2 56291  43.0008 246.9528 0001288 272.3464  87.7231 15.02562453 58759
STARLINK-30098          
1 56292U 23056G   24130.49520985  .00008030  00000+0  60860-3 0  9995
2 56292  43.0008 246.1547 0001225 277.5940  82.4763 15.02548892 58764
STARLINK-30090          
1 56293U 23056H   24130.02332267 -.00004234  00000+0 -29862-3 0  9990
2 56293  43.0020 249.4723 0001032 251.7018 108.3712 15.02523685 58683
STARLINK-30049          
1 56294U 23056J   24130.48534287  .00007035  00000+0  53546-3 0  9993
2 56294  42.9999 246.8627 0001000 288.6138  71.4596 15.02525272 58750
STARLINK-30083          
1 56295U 23056K   24130.54565121  .00019121  00000+0  14256-2 0  9995
2 56295  43.0024 220.3690 0001766 288.9003  71.1648 15.02563672 59079
STARLINK-30089          
1 56296U 23056L   24130.47942989  .00004124  00000+0  32015-3 0  9990
2 56296  43.0012 207.6935 0001226 256.5405 103.5301 15.02543279 59207
STARLINK-30086          
1 56297U 23056M   24129.60114146  .00001030  00000+0  91335-4 0  9994
2 56297  43.0044 251.4124 0001398 238.1050 121.9657 15.02536013 58634
STARLINK-30109          
1 56298U 23056N   24129.67427418 -.00000576  00000+0 -27566-4 0  9992
2 56298  43.0019 251.1011 0001947 275.2138  84.8482 15.02538736 58646
STARLINK-30108          
1 56299U 23056P   24130.50556994  .00008724  00000+0  66012-3 0  9998
2 56299  43.0027 234.0237 0001764 268.7030  91.3610 15.02532946 58903
STARLINK-30104          
1 56300U 23056Q   24130.02653579  .00002329  00000+0  18742-3 0  9997
2 56300  43.0021 248.6660 0001611 283.4876  76.5786 15.02539827 58694
STARLINK-30101          
1 56301U 23056R   24130.32241507  .00007050  00000+0  53637-3 0  9993
2 56301  43.0029 247.4280 0001625 274.0158  86.0498 15.02543293 58746
STARLINK-30111          
1 56302U 23056S   24130.51516997 -.00008480  00000+0 -61344-3 0  9997
2 56302  43.0023 246.2313 0002049 287.9463  72.1156 15.02533408 58764
STARLINK-30097          
1 56303U 23056T   24130.25001157  .00418156  00000+0  76962-2 0  9990
2 56303  42.9957 191.7011 0032510  35.8900 215.5509 15.46369885 59388
